IRIDIUM 150             
1 43257U 18030J   24266.55698497  .00000866  00000+0  30212-3 0  9996
2 43257  86.4039 194.8541 0002424  90.7914 269.3559 14.34215844339489
IRIDIUM 143             
1 43258U 18030K   24266.53795281  .00000715  00000+0  24820-3 0  9995
2 43258  86.4041 194.9295 0002367  90.2456 269.9011 14.34216944339416
IRIDIUM 161             
1 43478U 18047C   24266.52509823  .00000909  00000+0  26423-3 0  9997
2 43478  86.4549 352.8690 0002028  94.1552 265.9881 14.43288197333886
IRIDIUM 152             
1 43479U 18047D   24266.51067464  .00000629  00000+0  21743-3 0  9996
2 43479  86.4023 352.7345 0002136  95.1955 264.9485 14.34216170331809
IRIDIUM 147             
1 43480U 18047E   24266.65655452  .00000522  00000+0  17935-3 0  9993
2 43480  86.4027 352.6676 0002132  88.6022 271.5418 14.34220433331828
IRIDIUM 110             
1 43481U 18047F   24266.52335994  .00000453  00000+0  15453-3 0  9992
2 43481  86.4029 352.7987 0001903  86.1495 273.9918 14.34219287331791
IRIDIUM 162             
1 43482U 18047G   24266.51879442  .00000952  00000+0  27705-3 0  9990
2 43482  86.4546 352.7704 0001842  88.1004 272.0408 14.43276016333871
IRIDIUM 160             
1 43569U 18061A   24266.25988854  .00000042  00000+0  77755-5 0  9993
2 43569  86.3981 321.2982 0002296  87.8641 272.2817 14.34215897322655
